NORAD_CAT_ID,OBJECT_NAME,OBJECT_TYPE,EPOCH,MEAN_MOTION,ECCENTRICITY,INCLINATION,RA_OF_ASC_NODE,ARG_OF_PERICENTER,MEAN_ANOMALY,BSTAR,MEAN_MOTION_DOT,MEAN_MOTION_DDOT,TLE_LINE0,TLE_LINE1,TLE_LINE2,SEMIMAJOR_AXIS,PERIOD,APOGEE,PERIGEE,DECAYED
55317.0,STARLINK-5265,PAYLOAD,2024-08-18 18:33:16,14.98320157,0.0002769,70.0022,356.4135,265.7633,94.321,-0.00016551,-2.067e-05,0.0,0 STARLINK-5265,1 55317U 23010BA  24231.77310816 -.00002067  00000-0 -16551-3 0  9990,2 55317  70.0022 356.4135 0002769 265.7633  94.3210 14.98320157 89575,6950.223,96.108,574.013,570.164,0.0
55317.0,STARLINK-5265,PAYLOAD,2024-08-19 10:34:37,14.98319123,0.0002881,70.0019,354.7297,267.9585,92.1244,-9.5959e-05,-1.237e-05,0.0,0 STARLINK-5265,1 55317U 23010BA  24232.44070958 -.00001237  00000-0 -95959-4 0  9993,2 55317  70.0019 354.7297 0002881 267.9585  92.1244 14.98319123 88490,6950.227,96.108,574.094,570.089,0.0
55317.0,STARLINK-5265,PAYLOAD,2024-08-20 00:59:49,14.98339725,0.0002543,70.0023,353.216,273.206,86.8808,-0.0002783,-3.413e-05,0.0,0 STARLINK-5265,1 55317U 23010BA  24233.04154345 -.00003413  00000-0 -27830-3 0  9993,2 55317  70.0023 353.2160 0002543 273.2060  86.8808 14.98339725 88587,6950.163,96.106,573.795,570.26,0.0
55317.0,STARLINK-5265,PAYLOAD,2024-08-20 12:12:44,14.98381305,0.0002819,70.0015,352.0363,269.592,90.4916,-0.00081971,-9.873e-05,0.0,0 STARLINK-5265,1 55317U 23010BA  24233.50884698 -.00009873  00000-0 -81971-3 0  9997,2 55317  70.0015 352.0363 0002819 269.5920  90.4916 14.98381305 88659,6950.034,96.104,573.858,569.94,0.0
55317.0,STARLINK-5265,PAYLOAD,2024-08-20 13:48:52,14.98358642,0.0002697,70.0015,351.868,267.3186,92.7664,-0.00040644,-4.943e-05,0.0,0 STARLINK-5265,1 55317U 23010BA  24233.57560982 -.00004943  00000-0 -40644-3 0  9996,2 55317  70.0015 351.8680 0002697 267.3186  92.7664 14.98358642 89847,6950.104,96.105,573.844,570.095,0.0
55317.0,STARLINK-5265,PAYLOAD,2024-08-21 12:14:47,14.98321836,0.0002569,70.0025,349.5134,251.8234,108.2645,9.8939e-05,1.088e-05,0.0,0 STARLINK-5265,1 55317U 23010BA  24234.51026690  .00001088  00000-0  98939-4 0  9990,2 55317  70.0025 349.5134 0002569 251.8234 108.2645 14.98321836 88808,6950.218,96.108,573.869,570.298,0.0
55317.0,STARLINK-5265,PAYLOAD,2024-08-21 13:50:55,14.98320956,0.0002647,70.0013,349.3427,256.9768,103.1095,9.834e-05,1.08e-05,0.0,0 STARLINK-5265,1 55317U 23010BA  24234.57702755  .00001080  00000-0  98340-4 0  9997,2 55317  70.0013 349.3427 0002647 256.9768 103.1095 14.98320956 89999,6950.221,96.108,573.926,570.246,0.0
55317.0,STARLINK-5265,PAYLOAD,2024-08-21 17:03:11,14.98321684,0.000282,70.0011,349.0069,265.302,94.7817,9.2171e-05,1.007e-05,0.0,0 STARLINK-5265,1 55317U 23010BA  24234.71054854  .00001007  00000-0  92171-4 0  9998,2 55317  70.0011 349.0069 0002820 265.3020  94.7817 14.98321684 90015,6950.219,96.108,574.044,570.124,0.0
